NORAD_CAT_ID,OBJECT_NAME,OBJECT_TYPE,EPOCH,MEAN_MOTION,ECCENTRICITY,INCLINATION,RA_OF_ASC_NODE,ARG_OF_PERICENTER,MEAN_ANOMALY,BSTAR,MEAN_MOTION_DOT,MEAN_MOTION_DDOT,TLE_LINE0,TLE_LINE1,TLE_LINE2,SEMIMAJOR_AXIS,PERIOD,APOGEE,PERIGEE,DECAYED
50165.0,STARLINK-3298,PAYLOAD,2024-04-21 04:26:29,15.08821165,0.0001142,53.2157,105.4477,62.0142,298.0966,-0.00038817,-6.457e-05,0.0,0 STARLINK-3298,1 50165U 21125K   24112.18506756 -.00006457  00000-0 -38817-3 0  9990,2 50165  53.2157 105.4477 0001142  62.0142 298.0966 15.08821165129585,6917.938,95.439,540.593,539.013,0.0
50165.0,STARLINK-3298,PAYLOAD,2024-04-21 09:12:39,15.08821407,0.000141,53.2159,104.555,99.8546,260.2605,-0.00035054,-5.86e-05,0.0,0 STARLINK-3298,1 50165U 21125K   24112.38378851 -.00005860  00000-0 -35054-3 0  9992,2 50165  53.2159 104.5550 0001410  99.8546 260.2605 15.08821407132745,6917.937,95.439,540.778,538.827,0.0
50165.0,STARLINK-3298,PAYLOAD,2024-04-22 04:17:16,15.08842574,0.0001193,53.2156,100.9874,85.4146,274.6982,0.00044287,6.768e-05,0.0,0 STARLINK-3298,1 50165U 21125K   24113.17866832  .00006768  00000-0  44287-3 0  9995,2 50165  53.2156 100.9874 0001193  85.4146 274.6982 15.08842574129736,6917.873,95.437,540.563,538.912,0.0
50165.0,STARLINK-3298,PAYLOAD,2024-04-22 09:03:26,15.08857891,0.0001207,53.216,100.0948,99.0612,261.0517,0.0014343,0.00022624,0.0,0 STARLINK-3298,1 50165U 21125K   24113.37738896  .00022624  00000-0  14343-2 0  9993,2 50165  53.2160 100.0948 0001207  99.0612 261.0517 15.08857891132892,6917.826,95.436,540.526,538.856,0.0
50165.0,STARLINK-3298,PAYLOAD,2024-04-23 04:08:03,15.08867711,0.0001361,53.2167,96.5233,102.5468,257.5676,0.00072646,0.00011301,0.0,0 STARLINK-3298,1 50165U 21125K   24114.17225921  .00011301  00000-0  72646-3 0  9993,2 50165  53.2167  96.5233 0001361 102.5468 257.5676 15.08867711129888,6917.796,95.436,540.602,538.719,0.0
50165.0,STARLINK-3298,PAYLOAD,2024-04-23 21:37:16,15.08867719,0.0001527,53.2167,93.2527,124.2883,235.8254,0.00056995,8.801e-05,0.0,0 STARLINK-3298,1 50165U 21125K   24114.90088848  .00008801  00000-0  56995-3 0  9999,2 50165  53.2167  93.2527 0001527 124.2883 235.8254 15.08867719129995,6917.796,95.436,540.717,538.604,0.0
50165.0,STARLINK-3298,PAYLOAD,2024-04-24 03:58:49,15.08839481,0.0001606,53.2169,92.0632,114.2952,245.8208,-0.00047998,-7.919e-05,0.0,0 STARLINK-3298,1 50165U 21125K   24115.16584984 -.00007919  00000-0 -47998-3 0  9994,2 50165  53.2169  92.0632 0001606 114.2952 245.8208 15.08839481130037,6917.882,95.438,540.858,538.636,0.0
50165.0,STARLINK-3298,PAYLOAD,2024-04-24 05:34:12,15.08835716,0.0001317,53.2165,91.7674,97.4148,262.6994,-0.00045563,-7.531e-05,0.0,0 STARLINK-3298,1 50165U 21125K   24115.23209259 -.00007531  00000-0 -45563-3 0  9997,2 50165  53.2165  91.7674 0001317  97.4148 262.6994 15.08835716133177,6917.893,95.438,540.67,538.847,0.0
50165.0,STARLINK-3298,PAYLOAD,2024-04-25 05:25:00,15.08829679,0.0001494,53.2171,87.3095,102.9484,257.1675,1.0327e-05,-1.24e-06,0.0,0 STARLINK-3298,1 50165U 21125K   24116.22570422 -.00000124  00000-0  10327-4 0  9991,2 50165  53.2171  87.3095 0001494 102.9484 257.1675 15.08829679130198,6917.912,95.438,540.81,538.743,0.0
50165.0,STARLINK-3298,PAYLOAD,2024-04-25 07:00:24,15.08829724,0.0001596,53.2171,87.01,112.1551,247.9611,8.5148e-05,1.067e-05,0.0,0 STARLINK-3298,1 50165U 21125K   24116.29194511  .00001067  00000-0  85148-4 0  9998,2 50165  53.2171  87.0100 0001596 112.1551 247.9611 15.08829724133330,6917.912,95.438,540.881,538.673,0.0
50165.0,STARLINK-3298,PAYLOAD,2024-04-26 03:40:25,15.08825584,0.0001548,53.2177,83.1468,99.4949,260.6218,0.00017333,2.471e-05,0.0,0 STARLINK-3298,1 50165U 21125K   24117.15307746  .00002471  00000-0  17333-3 0  9990,2 50165  53.2177  83.1468 0001548  99.4949 260.6218 15.08825584130337,6917.924,95.438,540.86,538.719,0.0
50165.0,STARLINK-3298,PAYLOAD,2024-04-26 06:51:12,15.08828069,0.0001557,53.2177,82.5515,98.5499,261.5669,0.00019223,2.772e-05,0.0,0 STARLINK-3298,1 50165U 21125K   24117.28555734  .00002772  00000-0  19223-3 0  9990,2 50165  53.2177  82.5515 0001557  98.5499 261.5669 15.08828069133483,6917.917,95.438,540.859,538.705,0.0
50165.0,STARLINK-3298,PAYLOAD,2024-04-26 14:48:07,15.08841705,0.0001525,53.2181,81.0635,88.9213,271.1954,0.00039187,5.954e-05,0.0,0 STARLINK-3298,1 50165U 21125K   24117.61675434  .00005954  00000-0  39187-3 0  9993,2 50165  53.2181  81.0635 0001525  88.9213 271.1954 15.08841705130402,6917.875,95.437,540.795,538.685,0.0
50165.0,STARLINK-3298,PAYLOAD,2024-04-27 06:41:58,15.08859122,0.0001585,53.2182,78.09,101.3203,258.7968,0.00065614,0.00010175,0.0,0 STARLINK-3298,1 50165U 21125K   24118.27914935  .00010175  00000-0  65614-3 0  9993,2 50165  53.2182  78.0900 0001585 101.3203 258.7968 15.08859122133635,6917.822,95.436,540.783,538.59,0.0
50165.0,STARLINK-3298,PAYLOAD,2024-04-27 14:38:53,15.08870033,8.19e-05,53.2149,76.6053,88.4859,271.6227,0.0007035,0.00010935,0.0,0 STARLINK-3298,1 50165U 21125K   24118.61033792  .00010935  00000-0  70350-3 0  9991,2 50165  53.2149  76.6053 0000819  88.4859 271.6227 15.08870033130556,6917.789,95.436,540.22,539.087,0.0
50165.0,STARLINK-3298,PAYLOAD,2024-04-28 03:21:59,15.08820174,0.0001043,53.2168,74.2272,72.7051,287.4055,-0.00048821,-8.045e-05,0.0,0 STARLINK-3298,1 50165U 21125K   24119.14027658 -.00008045  00000-0 -48821-3 0  9993,2 50165  53.2168  74.2272 0001043  72.7051 287.4055 15.08820174130638,6917.941,95.439,540.528,539.084,0.0
50165.0,STARLINK-3298,PAYLOAD,2024-04-28 06:32:46,15.088289,0.0001403,53.2158,73.6288,95.8584,264.2568,-0.00023665,-4.051e-05,0.0,0 STARLINK-3298,1 50165U 21125K   24119.27275639 -.00004051  00000-0 -23665-3 0  9993,2 50165  53.2158  73.6288 0001403  95.8584 264.2568 15.08828900130653,6917.914,95.438,540.75,538.809,0.0
50165.0,STARLINK-3298,PAYLOAD,2024-04-28 14:29:41,15.08835262,0.0001578,53.218,72.1439,88.7731,271.3442,-5.4336e-06,-3.74e-06,0.0,0 STARLINK-3298,1 50165U 21125K   24119.60395600 -.00000374  00000-0 -54336-5 0  9996,2 50165  53.2180  72.1439 0001578  88.7731 271.3442 15.08835262133830,6917.895,95.438,540.852,538.668,0.0
50165.0,STARLINK-3298,PAYLOAD,2024-04-29 03:12:47,15.08845563,0.0001515,53.2174,69.7653,85.1996,274.9169,0.0010708,0.00016797,0.0,0 STARLINK-3298,1 50165U 21125K   24120.13388002  .00016797  00000-0  10708-2 0  9990,2 50165  53.2174  69.7653 0001515  85.1996 274.9169 15.08845563130789,6917.863,95.437,540.776,538.68,0.0
50165.0,STARLINK-3298,PAYLOAD,2024-04-29 06:23:33,15.08848101,0.0001534,53.2181,69.1709,84.1932,275.9235,0.00095138,0.00014889,0.0,0 STARLINK-3298,1 50165U 21125K   24120.26635918  .00014889  00000-0  95138-3 0  9996,2 50165  53.2181  69.1709 0001534  84.1932 275.9235 15.08848101133939,6917.856,95.437,540.782,538.659,0.0
50165.0,STARLINK-3298,PAYLOAD,2024-04-29 20:42:01,15.08847411,0.0001562,53.2181,66.4934,89.4196,270.6976,0.00054821,8.449e-05,0.0,0 STARLINK-3298,1 50165U 21125K   24120.86251860  .00008449  00000-0  54821-3 0  9991,2 50165  53.2181  66.4934 0001562  89.4196 270.6976 15.08847411130899,6917.858,95.437,540.803,538.642,0.0
50165.0,STARLINK-3298,PAYLOAD,2024-04-30 03:03:34,15.08842924,0.0001329,53.2169,65.3067,75.5932,284.5208,0.00022449,3.287e-05,0.0,0 STARLINK-3298,1 50165U 21125K   24121.12747906  .00003287  00000-0  22449-3 0  9998,2 50165  53.2169  65.3067 0001329  75.5932 284.5208 15.08842924130936,6917.871,95.437,540.656,538.817,0.0
50165.0,STARLINK-3298,PAYLOAD,2024-05-01 02:54:21,15.08837806,0.0001262,53.2163,60.8443,78.6499,281.4635,0.00020471,2.971e-05,0.0,0 STARLINK-3298,1 50165U 21125K   24122.12108187  .00002971  00000-0  20471-3 0  9993,2 50165  53.2163  60.8443 0001262  78.6499 281.4635 15.08837806131086,6917.887,95.438,540.625,538.879,0.0
50165.0,STARLINK-3298,PAYLOAD,2024-05-01 12:26:39,15.0885322,0.0001265,53.2171,59.059,74.2269,285.8862,0.00021572,3.148e-05,0.0,0 STARLINK-3298,1 50165U 21125K   24122.51851133  .00003148  00000-0  21572-3 0  9992,2 50165  53.2171  59.0590 0001265  74.2269 285.8862 15.08853220131143,6917.84,95.437,540.58,538.83,0.0
50165.0,STARLINK-3298,PAYLOAD,2024-05-01 20:23:35,15.08842346,0.0001803,53.2174,57.5751,88.9029,271.217,9.3782e-05,1.205e-05,0.0,0 STARLINK-3298,1 50165U 21125K   24122.84971785  .00001205  00000-0  93782-4 0  9999,2 50165  53.2174  57.5751 0001803  88.9029 271.2170 15.08842346131195,6917.873,95.437,540.986,538.491,0.0
50165.0,STARLINK-3298,PAYLOAD,2024-05-02 04:20:32,15.08833457,0.0001125,53.218,56.0876,85.1977,274.9144,4.0301e-05,3.54e-06,0.0,0 STARLINK-3298,1 50165U 21125K   24123.18092651  .00000354  00000-0  40301-4 0  9996,2 50165  53.2180  56.0876 0001125  85.1977 274.9144 15.08833457131242,6917.9,95.438,540.544,538.987,0.0
50165.0,STARLINK-3298,PAYLOAD,2024-05-02 12:17:27,15.08840351,0.0001115,53.2181,54.6003,83.5756,276.5363,0.00010025,1.308e-05,0.0,0 STARLINK-3298,1 50165U 21125K   24123.51212127  .00001308  00000-0  10025-3 0  9994,2 50165  53.2181  54.6003 0001115  83.5756 276.5363 15.08840351131292,6917.879,95.438,540.516,538.973,0.0
50165.0,STARLINK-3298,PAYLOAD,2024-05-03 04:11:17,15.08852685,0.000124,53.216,51.6268,111.7921,248.3203,0.00018872,2.718e-05,0.0,0 STARLINK-3298,1 50165U 21125K   24124.17451277  .00002718  00000-0  18872-3 0  9992,2 50165  53.2160  51.6268 0001240 111.7921 248.3203 15.08852685131390,6917.842,95.437,540.564,538.849,0.0
50165.0,STARLINK-3298,PAYLOAD,2024-05-03 12:08:13,15.08858726,0.0001417,53.2173,50.1401,72.9873,287.1274,0.0002575,3.815e-05,0.0,0 STARLINK-3298,1 50165U 21125K   24124.50570847  .00003815  00000-0  25750-3 0  9996,2 50165  53.2173  50.1401 0001417  72.9873 287.1274 15.08858726134571,6917.823,95.436,540.668,538.708,0.0
50165.0,STARLINK-3298,PAYLOAD,2024-05-03 18:29:46,15.08850747,0.0003634,53.2172,48.9512,77.3365,282.8033,0.00035693,5.398e-05,0.0,0 STARLINK-3298,1 50165U 21125K   24124.77068047  .00005398  00000-0  35693-3 0  9994,2 50165  53.2172  48.9512 0003634  77.3365 282.8033 15.08850747134611,6917.848,95.437,542.226,537.199,0.0
